{
  "type": "FeatureCollection",
  "features": [
    {
      "type": "Feature",
      "properties": {
        "norad_id": 57400,
        "name": "TIANMU-1 08",
        "group": "weather",
        "lat": 0.2685304814267055,
        "lon": -146.92130648868059,
        "alt_km": 484.6112157642083,
        "timestamp": "2025-12-09T07:41:32.845182+00:00",
        "meta_object_name": "TIANMU-1 08",
        "meta_object_id": "2023-101B",
        "meta_epoch": "2025-12-08T23:03:03.609216",
        "meta_mean_motion": 15.27969819,
        "meta_eccentricity": 0.00075561,
        "meta_inclination": 97.2865,
        "meta_ra_of_asc_node": 32.6923,
        "meta_arg_of_pericenter": 94.3797,
        "meta_mean_anomaly": 265.8306,
        "meta_ephemeris_type": 0,
        "meta_classification_type": "U",
        "meta_norad_cat_id": 57400,
        "meta_element_set_no": 999,
        "meta_rev_at_epoch": 13257,
        "meta_bstar": 0.00034158036,
        "meta_mean_motion_dot": 9.259e-05,
        "meta_mean_motion_ddot": 0,
        "tle_line1": "1 57400U 23101B   25342.96045844  .00009259  00000+0  34158-3 0  9997",
        "tle_line2": "2 57400  97.2865  32.6923 0007556  94.3797 265.8306 15.27969819132577"
      },
      "geometry": {
        "type": "Point",
        "coordinates": [
          -146.92130648868059,
          0.2685304814267055
        ]
      }
    },
    {
      "type": "Feature",
      "properties": {
        "norad_id": 57401,
        "name": "TIANMU-1 09",
        "group": "weather",
        "lat": -70.52110712852591,
        "lon": -168.63470529408855,
        "alt_km": 493.4682554830151,
        "timestamp": "2025-12-09T07:41:32.845192+00:00",
        "meta_object_name": "TIANMU-1 09",
        "meta_object_id": "2023-101C",
        "meta_epoch": "2025-12-08T22:44:07.725696",
        "meta_mean_motion": 15.27996198,
        "meta_eccentricity": 0.00068186,
        "meta_inclination": 97.2821,
        "meta_ra_of_asc_node": 32.1949,
        "meta_arg_of_pericenter": 93.9355,
        "meta_mean_anomaly": 266.2664,
        "meta_ephemeris_type": 0,
        "meta_classification_type": "U",
        "meta_norad_cat_id": 57401,
        "meta_element_set_no": 999,
        "meta_rev_at_epoch": 13257,
        "meta_bstar": 0.00035003602,
        "meta_mean_motion_dot": 9.497e-05,
        "meta_mean_motion_ddot": 0,
        "tle_line1": "1 57401U 23101C   25342.94731164  .00009497  00000+0  35004-3 0  9998",
        "tle_line2": "2 57401  97.2821  32.1949 0006818  93.9355 266.2664 15.27996198132570"
      },
      "geometry": {
        "type": "Point",
        "coordinates": [
          -168.63470529408855,
          -70.52110712852591
        ]
      }
    },
    {
      "type": "Feature",
      "properties": {
        "norad_id": 57402,
        "name": "TIANMU-1 10",
        "group": "weather",
        "lat": 62.82943178360992,
        "lon": 18.962950479009386,
        "alt_km": 470.59352219857556,
        "timestamp": "2025-12-09T07:41:32.845202+00:00",
        "meta_object_name": "TIANMU-1 10",
        "meta_object_id": "2023-101D",
        "meta_epoch": "2025-12-08T23:33:22.083840",
        "meta_mean_motion": 15.2798746,
        "meta_eccentricity": 0.00085563,
        "meta_inclination": 97.2902,
        "meta_ra_of_asc_node": 33.0741,
        "meta_arg_of_pericenter": 94.1447,
        "meta_mean_anomaly": 266.0771,
        "meta_ephemeris_type": 0,
        "meta_classification_type": "U",
        "meta_norad_cat_id": 57402,
        "meta_element_set_no": 999,
        "meta_rev_at_epoch": 13257,
        "meta_bstar": 0.00034032168,
        "meta_mean_motion_dot": 9.232e-05,
        "meta_mean_motion_ddot": 0,
        "tle_line1": "1 57402U 23101D   25342.98150560  .00009232  00000+0  34032-3 0  9995",
        "tle_line2": "2 57402  97.2902  33.0741 0008556  94.1447 266.0771 15.27987460132576"
      },
      "geometry": {
        "type": "Point",
        "coordinates": [
          18.962950479009386,
          62.82943178360992
        ]
      }
    },
    {
      "type": "Feature",
      "properties": {
        "norad_id": 57490,
        "name": "FENGYUN 3F",
        "group": "weather",
        "lat": -32.06659130541039,
        "lon": -133.8413600069837,
        "alt_km": 831.9742465726858,
        "timestamp": "2025-12-09T07:41:32.845212+00:00",
        "meta_object_name": "FENGYUN 3F",
        "meta_object_id": "2023-111A",
        "meta_epoch": "2025-12-08T22:14:21.219936",
        "meta_mean_motion": 14.19891917,
        "meta_eccentricity": 6.6e-05,
        "meta_inclination": 98.7088,
        "meta_ra_of_asc_node": 51.2815,
        "meta_arg_of_pericenter": 94.6792,
        "meta_mean_anomaly": 265.446,
        "meta_ephemeris_type": 0,
        "meta_classification_type": "U",
        "meta_norad_cat_id": 57490,
        "meta_element_set_no": 999,
        "meta_rev_at_epoch": 12186,
        "meta_bstar": 8.6714927e-05,
        "meta_mean_motion_dot": 1.4e-06,
        "meta_mean_motion_ddot": 0,
        "tle_line1": "1 57490U 23111A   25342.92663449  .00000140  00000+0  86715-4 0  9997",
        "tle_line2": "2 57490  98.7088  51.2815 0000660  94.6792 265.4460 14.19891917121863"
      },
      "geometry": {
        "type": "Point",
        "coordinates": [
          -133.8413600069837,
          -32.06659130541039
        ]
      }
    },
    {
      "type": "Feature",
      "properties": {
        "norad_id": 58584,
        "name": "ARKTIKA-M 2",
        "group": "weather",
        "lat": -45.89545306492742,
        "lon": 143.85041790312252,
        "alt_km": 2759.902125662463,
        "timestamp": "2025-12-09T07:41:32.845243+00:00",
        "meta_object_name": "ARKTIKA-M 2",
        "meta_object_id": "2023-198A",
        "meta_epoch": "2025-12-07T20:14:37.201632",
        "meta_mean_motion": 2.00604572,
        "meta_eccentricity": 0.68645726,
        "meta_inclination": 63.2245,
        "meta_ra_of_asc_node": 175.4245,
        "meta_arg_of_pericenter": 268.1228,
        "meta_mean_anomaly": 18.8285,
        "meta_ephemeris_type": 0,
        "meta_classification_type": "U",
        "meta_norad_cat_id": 58584,
        "meta_element_set_no": 999,
        "meta_rev_at_epoch": 1448,
        "meta_bstar": 0,
        "meta_mean_motion_dot": 1.69e-06,
        "meta_mean_motion_ddot": 0,
        "tle_line1": "1 58584U 23198A   25341.84348613  .00000169  00000+0  00000+0 0  9999",
        "tle_line2": "2 58584  63.2245 175.4245 6864572 268.1228  18.8285  2.00604572 14484"
      },
      "geometry": {
        "type": "Point",
        "coordinates": [
          143.85041790312252,
          -45.89545306492742
        ]
      }
    },
    {
      "type": "Feature",
      "properties": {
        "norad_id": 58645,
        "name": "TIANMU-1 11",
        "group": "weather",
        "lat": -72.88898554189936,
        "lon": 27.83247974954673,
        "alt_km": 495.1031574706358,
        "timestamp": "2025-12-09T07:41:32.845259+00:00",
        "meta_object_name": "TIANMU-1 11",
        "meta_object_id": "2023-205A",
        "meta_epoch": "2025-12-09T00:08:31.407648",
        "meta_mean_motion": 15.24527849,
        "meta_eccentricity": 0.0008248,
        "meta_inclination": 97.3606,
        "meta_ra_of_asc_node": 2.6947,
        "meta_arg_of_pericenter": 325.5319,
        "meta_mean_anomaly": 34.5382,
        "meta_ephemeris_type": 0,
        "meta_classification_type": "U",
        "meta_norad_cat_id": 58645,
        "meta_element_set_no": 999,
        "meta_rev_at_epoch": 10852,
        "meta_bstar": 0.00032472716,
        "meta_mean_motion_dot": 7.928e-05,
        "meta_mean_motion_ddot": 0,
        "tle_line1": "1 58645U 23205A   25343.00591907  .00007928  00000+0  32473-3 0  9995",
        "tle_line2": "2 58645  97.3606   2.6947 0008248 325.5319  34.5382 15.24527849108527"
      },
      "geometry": {
        "type": "Point",
        "coordinates": [
          27.83247974954673,
          -72.88898554189936
        ]
      }
    },
    {
      "type": "Feature",
      "properties": {
        "norad_id": 58646,
        "name": "TIANMU-1 12",
        "group": "weather",
        "lat": 40.26714163106606,
        "lon": -170.90412016787937,
        "alt_km": 493.57723014442763,
        "timestamp": "2025-12-09T07:41:32.845273+00:00",
        "meta_object_name": "TIANMU-1 12",
        "meta_object_id": "2023-205B",
        "meta_epoch": "2025-12-08T16:54:17.464320",
        "meta_mean_motion": 15.2440473,
        "meta_eccentricity": 0.00061116,
        "meta_inclination": 97.3594,
        "meta_ra_of_asc_node": 2.2053,
        "meta_arg_of_pericenter": 309.5629,
        "meta_mean_anomaly": 50.5068,
        "meta_ephemeris_type": 0,
        "meta_classification_type": "U",
        "meta_norad_cat_id": 58646,
        "meta_element_set_no": 999,
        "meta_rev_at_epoch": 10846,
        "meta_bstar": 0.00036097392,
        "meta_mean_motion_dot": 8.785e-05,
        "meta_mean_motion_ddot": 0,
        "tle_line1": "1 58646U 23205B   25342.70436880  .00008785  00000+0  36097-3 0  9998",
        "tle_line2": "2 58646  97.3594   2.2053 0006111 309.5629  50.5068 15.24404730108466"
      },
      "geometry": {
        "type": "Point",
        "coordinates": [
          -170.90412016787937,
          40.26714163106606
        ]
      }
    }
  ]
}